STARLINK-2317
1 27982C 21024F   21325.15294242  .00001058  00000-0  74079-4 0  3259
2 27982  53.0523 112.0613 0001448  57.6009  60.9788 15.04746265    17
